     2.100          NAVIGATION                              RINEX VERSION / TYPE
fic2rin                                 03/12/2011 00:13:55 PGM / RUN BY / DATE
                                                            END OF HEADER
29 11  3 11 16  0  0.0  .191605649889D-03  .284217094304D-11  .000000000000D+00
     .900000000000D+02 -.186250000000D+02  .467198032102D-08 -.205953225288D+01
    -.866129994392D-06  .267784821335D-02  .666640698910D-05  .515355618477D+04
     .489600000000D+06 -.149011611938D-07 -.500928744093D+00  .447034835815D-07
     .961563276376D+00  .249531250000D+03 -.125682405865D+01 -.802569144512D-08
     .170364239212D-09  .100000000000D+01  .162600000000D+04  .000000000000D+00
     .240000000000D+01  .000000000000D+00 -.884756445885D-08  .900000000000D+02
     .482406000000D+06  .400000000000D+01
30 11  3 11 16  0  0.0  .328316353261D-03  .295585778076D-11  .000000000000D+00
     .650000000000D+02 -.290000000000D+02  .454161774804D-08  .114587088752D+01
    -.164657831192D-05  .125808615703D-01  .827759504318D-05  .515365292549D+04
     .489600000000D+06 -.169500708580D-06 -.162802291860D+01 -.210478901863D-06
     .959357845448D+00  .223031250000D+03  .151738951503D+01 -.820177020808D-08
     .303584074067D-09  .100000000000D+01  .162600000000D+04  .000000000000D+00
     .340000000000D+01  .000000000000D+00 -.791624188423D-08  .650000000000D+02
     .482406000000D+06  .400000000000D+01
31 11  3 11 16  0  0.0  .517880544066D-04  .488853402203D-11  .000000000000D+00
     .290000000000D+02 -.500000000000D+02  .400159525393D-08 -.147012544069D+01
    -.258535146713D-05  .785477284808D-02  .704824924469D-05  .515362032700D+04
     .489600000000D+06 -.149011611938D-06 -.262387183797D+01  .149011611938D-07
     .979409166792D+00  .257593750000D+03 -.980949855059D+00 -.797318925819D-08
    -.407159816984D-10  .100000000000D+01  .162600000000D+04  .000000000000D+00
     .240000000000D+01  .000000000000D+00 -.130385160446D-07  .290000000000D+02
     .482406000000D+06  .400000000000D+01
 7 11  3 11 15 59 44.0  .537745654583D-05  .909494701773D-12  .000000000000D+00
     .000000000000D+00 -.647500000000D+02  .401981029838D-08 -.149991911765D+01
    -.344216823578D-05  .419725070242D-02  .695325434208D-05  .515367507362D+04
     .489584000000D+06 -.596046447754D-07 -.262478114542D+01 -.502914190292D-07
     .974235025965D+00  .252531250000D+03 -.310680876703D+01 -.790961518151D-08
    -.828605943335D-10  .100000000000D+01  .162600000000D+04  .000000000000D+00
     .240000000000D+01  .000000000000D+00 -.107102096081D-07  .000000000000D+00
     .483846000000D+06  .400000000000D+01
21 11  3 11 15 59 44.0 -.129663851112D-03 -.261479726760D-11  .000000000000D+00
     .430000000000D+02 -.815625000000D+01  .517807283037D-08 -.225825567090D+01
    -.707805156708D-06  .174158215523D-01  .881962478161D-05  .515378207970D+04
     .489584000000D+06  .206753611565D-06  .519106523808D+00 -.163912773132D-06
     .932211974142D+00  .191093750000D+03 -.239613363862D+01 -.807355058150D-08
    -.328585115460D-10  .100000000000D+01  .162600000000D+04  .000000000000D+00
     .240000000000D+01  .000000000000D+00 -.116415321827D-07  .430000000000D+02
     .484956000000D+06  .400000000000D+01
 7 11  3 11 17 59 44.0  .538351014256D-05  .909494701773D-12  .000000000000D+00
     .100000000000D+02 -.563437500000D+02  .411445709794D-08 -.449959556153D+00
    -.309012830257D-05  .419651845004D-02  .688806176186D-05  .515367286873D+04
     .496784000000D+06  .670552253723D-07 -.262483781595D+01 -.186264514923D-07
     .974233852705D+00  .253812500000D+03 -.310659129987D+01 -.798497546342D-08
    -.171792870148D-09  .100000000000D+01  .162600000000D+04  .000000000000D+00
     .240000000000D+01  .000000000000D+00 -.107102096081D-07  .100000000000D+02
     .489606000000D+06  .400000000000D+01
21 11  3 11 17 59 44.0 -.129682943225D-03 -.261479726760D-11  .000000000000D+00
     .440000000000D+02  .671875000000D+01  .525236163909D-08 -.120827742794D+01
     .445172190666D-06  .174165136414D-01  .811181962490D-05  .515377722931D+04
     .496784000000D+06  .417232513428D-06  .519048921408D+00  .558793544769D-07
     .932211026171D+00  .202312500000D+03 -.239599105970D+01 -.823962892790D-08
    -.156435087578D-09  .100000000000D+01  .162600000000D+04  .000000000000D+00
     .240000000000D+01  .000000000000D+00 -.116415321827D-07  .440000000000D+02
     .489606000000D+06  .400000000000D+01
 1 11  3 11 18  0  0.0 -.214643310755D-03 -.284217094304D-11  .000000000000D+00
     .750000000000D+02 -.335625000000D+02  .420910389750D-08  .299248314548D+01
    -.172667205334D-05  .454496906605D-02  .824965536594D-05  .515357770920D+04
     .496800000000D+06  .670552253723D-07 -.158641858319D+01 -.558793544769D-08
     .967830104363D+00  .226406250000D+03  .868958376359D+00 -.779175312922D-08
     .323584907182D-09  .100000000000D+01  .162600000000D+04  .000000000000D+00
     .240000000000D+01  .630000000000D+02 -.195577740669D-07  .750000000000D+02
     .489606000000D+06  .400000000000D+01
 2 11  3 11 18  0  0.0  .324646476656D-03  .193267624127D-11  .000000000000D+00
     .880000000000D+02  .103750000000D+02  .512842790532D-08  .123037583688D+01
     .519677996635D-06  .100919009419D-01  .868923962116D-05  .515372189903D+04
     .496800000000D+06  .298023223877D-07  .492708911692D+00  .141561031342D-06
     .939518521415D+00  .200218750000D+03 -.305970682352D+01 -.820855620503D-08
    -.355371945525D-09  .100000000000D+01  .162600000000D+04  .000000000000D+00
     .240000000000D+01  .000000000000D+00 -.172294676304D-07  .880000000000D+02
     .489606000000D+06  .400000000000D+01
 3 11  3 11 18  0  0.0  .687045045197D-03  .511590769747D-11  .000000000000D+00
     .400000000000D+02 -.186562500000D+02  .553165898723D-08  .122852316963D+01
    -.102072954178D-05  .140073923394D-01  .671669840813D-05  .515364448929D+04
     .496800000000D+06 -.281259417534D-06 -.663689712175D+00  .521540641785D-07
     .928479887257D+00  .235812500000D+03  .107606343283D+01 -.871286292571D-08
     .138577200868D-09  .100000000000D+01  .162600000000D+04  .000000000000D+00
     .240000000000D+01  .000000000000D+00 -.419095158577D-08  .400000000000D+02
     .489606000000D+06  .400000000000D+01
 4 11  3 11 18  0  0.0  .578756444156D-04  .103455022327D-10  .000000000000D+00
     .990000000000D+02  .846875000000D+01  .506771109051D-08 -.201018389771D+01
     .184401869774D-06  .958724028897D-02  .870414078236D-05  .515361074066D+04
     .496800000000D+06  .139698386192D-06  .510186411540D+00 -.521540641785D-07
     .938608238195D+00  .195156250000D+03  .713744653850D+00 -.808819404860D-08
    -.921466954226D-10  .100000000000D+01  .162600000000D+04  .000000000000D+00
     .340000000000D+01  .000000000000D+00 -.605359673500D-08  .990000000000D+02
     .489606000000D+06  .400000000000D+01
 5 11  3 11 18  0  0.0 -.127477571368D-03 -.591171556152D-11  .000000000000D+00
     .850000000000D+02  .888750000000D+02  .468448084172D-08  .296507639053D+01
     .457465648651D-05  .225561554544D-02  .823661684990D-05  .515363360023D+04
     .496800000000D+06 -.428408384323D-07  .155419025506D+01 -.204890966415D-07
     .954731549887D+00  .218250000000D+03  .285924477125D+00 -.803176312660D-08
    -.432160858377D-10  .100000000000D+01  .162600000000D+04  .000000000000D+00
     .240000000000D+01  .000000000000D+00 -.977888703346D-08  .850000000000D+02
     .489606000000D+06  .400000000000D+01
 6 11  3 11 18  0  0.0 -.422820448875D-05 -.131308297568D-09  .000000000000D+00
     .700000000000D+01 -.171250000000D+02  .524093259159D-08 -.297278233785D+01
    -.812113285065D-06  .655916333199D-02  .620260834694D-05  .515364937782D+04
     .496800000000D+06 -.391155481339D-07 -.590677413594D+00  .119209289551D-06
     .935702306500D+00  .242531250000D+03 -.847518099148D+00 -.829748848084D-08
     .223580741607D-09  .100000000000D+01  .162600000000D+04  .000000000000D+00
     .240000000000D+01  .000000000000D+00 -.465661287308D-08  .700000000000D+01
     .489606000000D+06  .400000000000D+01
 8 11  3 11 18  0  0.0  .752368941903D-05  .000000000000D+00  .000000000000D+00
     .200000000000D+02 -.606875000000D+02  .358372070492D-08 -.976032845491D+00
    -.331178307533D-05  .114411326358D-01  .711344182491D-05  .515361301804D+04
     .496800000000D+06  .931322574615D-07 -.255096326906D+01 -.193715095520D-06
     .995839888774D+00  .259031250000D+03 -.308376502920D+01 -.770174938020D-08
    -.621454457501D-10  .100000000000D+01  .162600000000D+04  .000000000000D+00
     .240000000000D+01  .000000000000D+00 -.465661287308D-08  .200000000000D+02
     .489606000000D+06  .400000000000D+01
 9 11  3 11 18  0  0.0  .669769942760D-04  .238742359215D-11  .000000000000D+00
     .950000000000D+02 -.595937500000D+02  .406374069968D-08 -.111428781890D+01
    -.289082527161D-05  .170747673837D-01  .622309744358D-05  .515367804337D+04
     .496800000000D+06 -.236555933952D-06 -.265384028683D+01  .311061739922D-06
     .983200125889D+00  .271906250000D+03  .155724671225D+01 -.815498254490D-08
    -.164649715464D-09  .100000000000D+01  .162600000000D+04  .000000000000D+00
     .340000000000D+01  .000000000000D+00 -.558793544769D-08  .950000000000D+02
     .489606000000D+06  .400000000000D+01
10 11  3 11 18  0  0.0 -.685318373144D-04 -.102318153949D-11  .000000000000D+00
     .810000000000D+02  .945000000000D+02  .469698136241D-08 -.304525046016D+01
     .468455255032D-05  .101014726097D-01  .797025859356D-05  .515358880234D+04
     .496800000000D+06 -.447034835815D-07  .157832435840D+01 -.184401869774D-06
     .949686297995D+00  .220250000000D+03  .702421438238D+00 -.798461830569D-08
    -.182150444440D-10  .100000000000D+01  .162600000000D+04  .000000000000D+00
     .340000000000D+01  .000000000000D+00 -.279396772385D-08  .810000000000D+02
     .489606000000D+06  .400000000000D+01
